{
    "links": {
        "self": "http://www.neowsapp.com/rest/v1/neo/3840714?api_key=iIulBulltgU6a56xZRHN4H3l9WmuAYTsLGpBGhQ2"
    },
    "id": "3840714",
    "neo_reference_id": "3840714",
    "name": "(2019 FN1)",
    "designation": "2019 FN1",
    "nasa_jpl_url": "http://ssd.jpl.nasa.gov/sbdb.cgi?sstr=3840714",
    "absolute_magnitude_h": 27.1,
    "estimated_diameter": {
        "kilometers": {
            "estimated_diameter_min": 0.0101054342,
            "estimated_diameter_max": 0.0225964377
        },
        "meters": {
            "estimated_diameter_min": 10.1054341542,
            "estimated_diameter_max": 22.5964377109
        },
        "miles": {
            "estimated_diameter_min": 0.0062792237,
            "estimated_diameter_max": 0.0140407711
        },
        "feet": {
            "estimated_diameter_min": 33.1543125905,
            "estimated_diameter_max": 74.1352966996
        }
    },
    "is_potentially_hazardous_asteroid": false,
    "close_approach_data": [
        {
            "close_approach_date": "2015-06-25",
            "close_approach_date_full": "2015-Jun-25 09:55",
            "epoch_date_close_approach": 1435226100000,
            "relative_velocity": {
                "kilometers_per_second": "14.7741864885",
                "kilometers_per_hour": "53187.0713587742",
                "miles_per_hour": "33048.3777562339"
            },
            "miss_distance": {
                "astronomical": "0.3480619728",
                "lunar": "135.3961074192",
                "kilometers": "52069329.758877936",
                "miles": "32354381.2195740768"
            },
            "orbiting_body": "Earth"
        },
        {
            "close_approach_date": "2019-04-02",
            "close_approach_date_full": "2019-Apr-02 01:34",
            "epoch_date_close_approach": 1554168840000,
            "relative_velocity": {
                "kilometers_per_second": "8.9646046804",
                "kilometers_per_hour": "32272.5768492951",
                "miles_per_hour": "20052.9242094967"
            },
            "miss_distance": {
                "astronomical": "0.0217101754",
                "lunar": "8.4452582306",
                "kilometers": "3247795.997166398",
                "miles": "2018086.8527083724"
            },
            "orbiting_body": "Earth"
        },
        {
            "close_approach_date": "2021-03-13",
            "close_approach_date_full": "2021-Mar-13 00:46",
            "epoch_date_close_approach": 1615596360000,
            "relative_velocity": {
                "kilometers_per_second": "14.6678276094",
                "kilometers_per_hour": "52804.1793937601",
                "miles_per_hour": "32810.4635794172"
            },
            "miss_distance": {
                "astronomical": "0.2391250528",
                "lunar": "93.0196455392",
                "kilometers": "35772598.562517536",
                "miles": "22228062.0178165568"
            },
            "orbiting_body": "Earth"
        },
        {
            "close_approach_date": "2021-07-21",
            "close_approach_date_full": "2021-Jul-21 16:25",
            "epoch_date_close_approach": 1626884700000,
            "relative_velocity": {
                "kilometers_per_second": "4.7593053075",
                "kilometers_per_hour": "17133.4991069574",
                "miles_per_hour": "10646.0900423203"
            },
            "miss_distance": {
                "astronomical": "0.4961261926",
                "lunar": "192.9930889214",
                "kilometers": "74219421.664169762",
                "miles": "46117810.1108442356"
            },
            "orbiting_body": "Earth"
        },
        {
            "close_approach_date": "2023-02-28",
            "close_approach_date_full": "2023-Feb-28 02:56",
            "epoch_date_close_approach": 1677552960000,
            "relative_velocity": {
                "kilometers_per_second": "21.4234765938",
                "kilometers_per_hour": "77124.5157376519",
                "miles_per_hour": "47922.1747926538"
            },
            "miss_distance": {
                "astronomical": "0.4820157258",
                "lunar": "187.5041173362",
                "kilometers": "72108525.886184046",
                "miles": "44806160.2964139948"
            },
            "orbiting_body": "Earth"
        }
    ],
    "orbital_data": {
        "orbit_id": "3",
        "orbit_determination_date": "2019-04-05 07:30:19",
        "first_observation_date": "2019-03-29",
        "last_observation_date": "2019-04-02",
        "data_arc_in_days": 4,
        "observations_used": 49,
        "orbit_uncertainty": "7",
        "minimum_orbit_intersection": ".0216388",
        "jupiter_tisserand_invariant": "4.320",
        "epoch_osculation": "2459000.5",
        "eccentricity": ".3705939263066952",
        "semi_major_axis": "1.567262319488308",
        "inclination": "11.16045373226825",
        "ascending_node_longitude": "188.0908685853802",
        "orbital_period": "716.656369790893",
        "perihelion_distance": ".9864444229565977",
        "perihelion_argument": "31.05963895532369",
        "aphelion_distance": "2.148080216020019",
        "perihelion_time": "2459315.817042419185",
        "mean_anomaly": "201.6059075787912",
        "mean_motion": ".5023327987791991",
        "equinox": "J2000",
        "orbit_class": {
            "orbit_class_type": "APO",
            "orbit_class_description": "Near-Earth asteroid orbits which cross the Earth’s orbit similar to that of 1862 Apollo",
            "orbit_class_range": "a (semi-major axis) > 1.0 AU; q (perihelion) < 1.017 AU"
        }
    },
    "is_sentry_object": false
}